{"type":"FeatureCollection", "features": [
{"type":"Feature","geometry":{"type":"Polygon","coordinates":[[[-80.254,25.7351],[-80.2539,25.7335],[-80.2617,25.7274],[-80.2614,25.7199],[-80.2608,25.7056],[-80.258,25.7048],[-80.2526,25.705],[-80.2505,25.7049],[-80.2485,25.7041],[-80.2454,25.702],[-80.2461,25.7075],[-80.2478,25.7095],[-80.2376,25.7096],[-80.238,25.7188],[-80.2115,25.7345],[-80.2159,25.7388],[-80.2143,25.7385],[-80.2125,25.7397],[-80.2135,25.741],[-80.2143,25.7407],[-80.2168,25.743],[-80.2111,25.7469],[-80.2113,25.7477],[-80.2128,25.7491],[-80.2215,25.7459],[-80.2237,25.7453],[-80.2244,25.746],[-80.2258,25.7457],[-80.2299,25.7455],[-80.234,25.7456],[-80.234,25.746],[-80.2376,25.7459],[-80.2408,25.7454],[-80.2457,25.7455],[-80.2462,25.7452],[-80.2531,25.745],[-80.2544,25.7448],[-80.256,25.7439],[-80.2543,25.7426],[-80.254,25.7351]]]},"properties":{"zip":"33133"}},
{"type":"Feature","geometry":{"type":"Polygon","coordinates":[[[-80.1403,25.796],[-80.1414,25.7956],[-80.1421,25.7966],[-80.1451,25.7965],[-80.147,25.7979],[-80.1643,25.7972],[-80.187,25.7971],[-80.1871,25.7959],[-80.1856,25.7955],[-80.1854,25.7938],[-80.1854,25.7897],[-80.1799,25.7899],[-80.1791,25.7889],[-80.1662,25.7889],[-80.1685,25.7819],[-80.169,25.7796],[-80.1637,25.7774],[-80.1531,25.7728],[-80.1519,25.7723],[-80.146,25.7696],[-80.1414,25.7671],[-80.1356,25.7649],[-80.1249,25.76],[-80.1237,25.7624],[-80.126,25.7705],[-80.1243,25.7802],[-80.1239,25.7867],[-80.1216,25.7961],[-80.1193,25.8036],[-80.1232,25.8041],[-80.1239,25.8044],[-80.1258,25.7994],[-80.128,25.8001],[-80.1302,25.7994],[-80.135,25.7968],[-80.1336,25.7998],[-80.1348,25.8001],[-80.1367,25.7959],[-80.1388,25.7948],[-80.1403,25.796]]]},"properties":{"zip":"33139"}},
{"type":"Feature","geometry":{"type":"Polygon","coordinates":[[[-80.2147,25.7745],[-80.2146,25.7696],[-80.2162,25.7695],[-80.2162,25.7686],[-80.2145,25.7686],[-80.2143,25.7629],[-80.2006,25.7633],[-80.2006,25.7625],[-80.1989,25.7615],[-80.1956,25.7615],[-80.1963,25.76],[-80.1929,25.758],[-80.1922,25.7603],[-80.1935,25.7605],[-80.1919,25.7674],[-80.1922,25.7683],[-80.1934,25.7683],[-80.1934,25.7713],[-80.1918,25.7715],[-80.1919,25.7726],[-80.1935,25.7725],[-80.1937,25.7751],[-80.1978,25.775],[-80.1994,25.7743],[-80.2044,25.7738],[-80.2094,25.7737],[-80.2094,25.7747],[-80.2115,25.7746],[-80.2114,25.7737],[-80.213,25.7736],[-80.213,25.7746],[-80.2147,25.7745]]]},"properties":{"zip":"33130"}},
{"type":"Feature","geometry":{"type":"Polygon","coordinates":[[[-80.2555,25.7718],[-80.2546,25.7726],[-80.2508,25.7726],[-80.2508,25.772],[-80.2473,25.7721],[-80.2473,25.7729],[-80.2437,25.773],[-80.2437,25.7726],[-80.2401,25.7723],[-80.2243,25.7728],[-80.2222,25.7733],[-80.2163,25.7735],[-80.2164,25.7744],[-80.2147,25.7745],[-80.2149,25.7816],[-80.2146,25.7847],[-80.2161,25.7849],[-80.2162,25.7876],[-80.2167,25.7893],[-80.2164,25.7904],[-80.215,25.7905],[-80.2151,25.7932],[-80.2192,25.793],[-80.2192,25.7939],[-80.2223,25.7948],[-80.2455,25.7941],[-80.246,25.7937],[-80.2478,25.7941],[-80.2561,25.7939],[-80.2562,25.7944],[-80.2625,25.7939],[-80.2642,25.7936],[-80.2641,25.7852],[-80.2615,25.7858],[-80.2559,25.786],[-80.2555,25.7732],[-80.2583,25.7732],[-80.2582,25.7725],[-80.2555,25.7725],[-80.2555,25.7718]]]},"properties":{"zip":"33125"}},
{"type":"Feature","geometry":{"type":"Polygon","coordinates":[[[-80.2166,25.8312],[-80.2162,25.8239],[-80.2151,25.7932],[-80.2124,25.7932],[-80.2109,25.7936],[-80.2111,25.7951],[-80.1985,25.7954],[-80.1945,25.7956],[-80.193,25.8017],[-80.195,25.8016],[-80.1952,25.8058],[-80.194,25.8068],[-80.1931,25.8105],[-80.1953,25.8105],[-80.1959,25.824],[-80.1965,25.832],[-80.1993,25.8316],[-80.1993,25.8325],[-80.2044,25.8324],[-80.2043,25.8306],[-80.2054,25.8305],[-80.2053,25.8287],[-80.2063,25.8285],[-80.2058,25.8323],[-80.2146,25.8321],[-80.2146,25.8313],[-80.2166,25.8312]]]},"properties":{"zip":"33127"}},
{"type":"Feature","geometry":{"type":"Polygon","coordinates":[[[-80.1965,25.832],[-80.1963,25.8328],[-80.1966,25.84],[-80.1956,25.8401],[-80.1957,25.843],[-80.1966,25.843],[-80.197,25.8486],[-80.1973,25.8604],[-80.1979,25.8733],[-80.2029,25.8731],[-80.2035,25.8727],[-80.2075,25.873],[-80.2074,25.8693],[-80.2085,25.8692],[-80.2086,25.8721],[-80.21,25.8719],[-80.2121,25.8723],[-80.2161,25.8722],[-80.2182,25.8726],[-80.2179,25.8645],[-80.2158,25.8619],[-80.2157,25.86],[-80.2173,25.8575],[-80.2176,25.8555],[-80.2196,25.8556],[-80.2211,25.8568],[-80.2237,25.8613],[-80.2245,25.8613],[-80.2218,25.8567],[-80.2216,25.8548],[-80.2176,25.8548],[-80.2174,25.8505],[-80.2153,25.8505],[-80.2152,25.8487],[-80.2173,25.8487],[-80.217,25.8394],[-80.2172,25.8394],[-80.2168,25.832],[-80.2166,25.8312],[-80.2146,25.8313],[-80.2146,25.8321],[-80.2058,25.8323],[-80.2063,25.8285],[-80.2053,25.8287],[-80.2054,25.8305],[-80.2043,25.8306],[-80.2044,25.8324],[-80.1993,25.8325],[-80.1993,25.8316],[-80.1965,25.832]]]},"properties":{"zip":"33150"}},
{"type":"Feature","geometry":{"type":"Polygon","coordinates":[[[-80.1609,25.8428],[-80.1602,25.8283],[-80.1601,25.8269],[-80.1356,25.8278],[-80.1337,25.8274],[-80.131,25.8301],[-80.1303,25.8319],[-80.1311,25.8348],[-80.1332,25.838],[-80.1327,25.8407],[-80.1329,25.8417],[-80.1297,25.8438],[-80.1291,25.8433],[-80.1243,25.844],[-80.1241,25.8431],[-80.1223,25.8393],[-80.122,25.8444],[-80.1207,25.8436],[-80.1189,25.8436],[-80.1188,25.8486],[-80.1113,25.8486],[-80.1114,25.8502],[-80.115,25.8505],[-80.115,25.8559],[-80.1152,25.8726],[-80.1239,25.8725],[-80.1381,25.8719],[-80.1458,25.8717],[-80.1567,25.8706],[-80.1635,25.8557],[-80.1614,25.8558],[-80.1609,25.8428]]]},"properties":{"zip":"33141"}},
{"type":"Feature","geometry":{"type":"Polygon","coordinates":[[[-80.3195,25.8816],[-80.3231,25.8816],[-80.3234,25.8799],[-80.323,25.8698],[-80.3226,25.8537],[-80.3137,25.8471],[-80.3137,25.8474],[-80.3063,25.8475],[-80.3063,25.8471],[-80.3023,25.8471],[-80.3003,25.8475],[-80.3003,25.8462],[-80.2982,25.8462],[-80.2983,25.8471],[-80.2905,25.8471],[-80.2902,25.848],[-80.2883,25.8481],[-80.2882,25.8472],[-80.2863,25.8473],[-80.2863,25.8482],[-80.2823,25.8483],[-80.2825,25.8512],[-80.2786,25.8513],[-80.2786,25.8522],[-80.2825,25.8521],[-80.2821,25.853],[-80.2826,25.8548],[-80.283,25.8642],[-80.2809,25.8642],[-80.2809,25.8651],[-80.283,25.8651],[-80.2836,25.8814],[-80.2873,25.8813],[-80.2874,25.8837],[-80.289,25.8844],[-80.2975,25.8843],[-80.3019,25.8842],[-80.312,25.8842],[-80.3156,25.8844],[-80.3154,25.8825],[-80.3195,25.8825],[-80.3195,25.8816]]]},"properties":{"zip":"33012"}},
{"type":"Feature","geometry":{"type":"Polygon","coordinates":[[[-80.2544,25.7448],[-80.2552,25.7661],[-80.2555,25.7718],[-80.2555,25.7725],[-80.2582,25.7725],[-80.2613,25.7725],[-80.2612,25.7717],[-80.2657,25.7716],[-80.2658,25.7752],[-80.2683,25.7751],[-80.2683,25.7733],[-80.2673,25.7734],[-80.2672,25.7716],[-80.282,25.771],[-80.2821,25.7746],[-80.2857,25.7745],[-80.2855,25.7709],[-80.2881,25.7712],[-80.2875,25.7538],[-80.2858,25.7539],[-80.2859,25.7492],[-80.2873,25.7484],[-80.2865,25.734],[-80.2844,25.734],[-80.2702,25.7344],[-80.2621,25.7348],[-80.2619,25.7355],[-80.2587,25.7357],[-80.2586,25.7349],[-80.254,25.7351],[-80.2543,25.7426],[-80.256,25.7439],[-80.2544,25.7448]]]},"properties":{"zip":"33134"}},
{"type":"Feature","geometry":{"type":"Polygon","coordinates":[[[-80.1979,25.7789],[-80.1979,25.7798],[-80.1996,25.7797],[-80.1995,25.7788],[-80.1979,25.7789]]]},"properties":{"zip":"33101"}}
]}